[{"OBJECT_NAME":"OBJECT A","OBJECT_ID":"2023-104A","EPOCH":"2026-03-06T18:47:13.750656","MEAN_MOTION":15.33350758,"ECCENTRICITY":0.00093331,"INCLINATION":97.2792,"RA_OF_ASC_NODE":135.5625,"ARG_OF_PERICENTER":122.1915,"MEAN_ANOMALY":238.0234,"EPHEMERIS_TYPE":0,"CLASSIFICATION_TYPE":"U","NORAD_CAT_ID":57424,"ELEMENT_SET_NO":999,"REV_AT_EPOCH":14634,"BSTAR":0.00048200218,"MEAN_MOTION_DOT":0.00015492,"MEAN_MOTION_DDOT":0},{"OBJECT_NAME":"STARLINK-30849","OBJECT_ID":"2023-171R","EPOCH":"2026-03-09T22:00:01.999584","MEAN_MOTION":15.23663068,"ECCENTRICITY":0.00015687,"INCLINATION":43.0007,"RA_OF_ASC_NODE":283.6405,"ARG_OF_PERICENTER":288.773,"MEAN_ANOMALY":42.2251,"EPHEMERIS_TYPE":0,"CLASSIFICATION_TYPE":"U","NORAD_CAT_ID":58245,"ELEMENT_SET_NO":999,"REV_AT_EPOCH":577,"BSTAR":0.048301601,"MEAN_MOTION_DOT":0.01296338,"MEAN_MOTION_DDOT":0}]
